{"fetched_at":"2026-07-07T07:58:14.001Z","source":"https://celestrak.org/NORAD/elements/gp.php?GROUP=spire&FORMAT=JSON","constellation":"spire","records":[{"OBJECT_NAME":"LEMUR-2-MYRA","OBJECT_ID":"2025-276EC","EPOCH":"2026-07-06T17:37:24.269088","CLASSIFICATION_TYPE":"U","MEAN_MOTION":15.00524052,"ECCENTRICITY":0.0018461,"INCLINATION":97.5208,"RA_OF_ASC_NODE":257.9763,"ARG_OF_PERICENTER":79.9717,"MEAN_ANOMALY":280.3589,"EPHEMERIS_TYPE":0,"NORAD_CAT_ID":66787,"ELEMENT_SET_NO":999,"REV_AT_EPOCH":3314,"BSTAR":0.00038707,"MEAN_MOTION_DOT":0.0000484,"MEAN_MOTION_DDOT":0},{"OBJECT_NAME":"LEMUR-2 FIKRETDENGIZ","OBJECT_ID":"2026-004A","EPOCH":"2026-07-05T22:59:45.997728","CLASSIFICATION_TYPE":"U","MEAN_MOTION":14.88472307,"ECCENTRICITY":0.0010567,"INCLINATION":97.8024,"RA_OF_ASC_NODE":185.2292,"ARG_OF_PERICENTER":81.5698,"MEAN_ANOMALY":278.6716,"EPHEMERIS_TYPE":0,"NORAD_CAT_ID":67363,"ELEMENT_SET_NO":999,"REV_AT_EPOCH":2607,"BSTAR":0.00053037,"MEAN_MOTION_DOT":0.00004876,"MEAN_MOTION_DDOT":0},{"OBJECT_NAME":"TWILIGHT-1 OBJECT B","OBJECT_ID":"2026-004B","EPOCH":"2026-07-06T17:32:13.914240","CLASSIFICATION_TYPE":"U","MEAN_MOTION":14.87773913,"ECCENTRICITY":0.0010157,"INCLINATION":97.8067,"RA_OF_ASC_NODE":185.9957,"ARG_OF_PERICENTER":70.0556,"MEAN_ANOMALY":290.1754,"EPHEMERIS_TYPE":0,"NORAD_CAT_ID":67364,"ELEMENT_SET_NO":999,"REV_AT_EPOCH":2619,"BSTAR":0.00021511,"MEAN_MOTION_DOT":0.0000191,"MEAN_MOTION_DDOT":0},{"OBJECT_NAME":"LEMUR-2-MARIO-SOUSA","OBJECT_ID":"2026-004C","EPOCH":"2026-07-06T11:26:56.436576","CLASSIFICATION_TYPE":"U","MEAN_MOTION":14.886798,"ECCENTRICITY":0.00102184,"INCLINATION":97.7998,"RA_OF_ASC_NODE":185.7354,"ARG_OF_PERICENTER":81.3584,"MEAN_ANOMALY":278.8791,"EPHEMERIS_TYPE":0,"NORAD_CAT_ID":67365,"ELEMENT_SET_NO":999,"REV_AT_EPOCH":2616,"BSTAR":0.00047199034,"MEAN_MOTION_DOT":0.00004355,"MEAN_MOTION_DDOT":0},{"OBJECT_NAME":"LEMUR-2-SONNENBLUME","OBJECT_ID":"2026-004E","EPOCH":"2026-07-06T11:28:48.751392","CLASSIFICATION_TYPE":"U","MEAN_MOTION":14.88423791,"ECCENTRICITY":0.00097451,"INCLINATION":97.7993,"RA_OF_ASC_NODE":185.7134,"ARG_OF_PERICENTER":82.4268,"MEAN_ANOMALY":277.8056,"EPHEMERIS_TYPE":0,"NORAD_CAT_ID":67367,"ELEMENT_SET_NO":999,"REV_AT_EPOCH":2616,"BSTAR":0.00033971274,"MEAN_MOTION_DOT":0.00003099,"MEAN_MOTION_DDOT":0},{"OBJECT_NAME":"LEMUR-2-WOBLER","OBJECT_ID":"2026-004F","EPOCH":"2026-07-06T17:42:34.123680","CLASSIFICATION_TYPE":"U","MEAN_MOTION":14.8865821,"ECCENTRICITY":0.0009922,"INCLINATION":97.8045,"RA_OF_ASC_NODE":186.1106,"ARG_OF_PERICENTER":73.588,"MEAN_ANOMALY":286.6427,"EPHEMERIS_TYPE":0,"NORAD_CAT_ID":67368,"ELEMENT_SET_NO":999,"REV_AT_EPOCH":2620,"BSTAR":0.00039153,"MEAN_MOTION_DOT":0.00003601,"MEAN_MOTION_DDOT":0},{"OBJECT_NAME":"LEMUR-2-GRAM-E-SUE","OBJECT_ID":"2026-004H","EPOCH":"2026-07-06T19:07:11.867232","CLASSIFICATION_TYPE":"U","MEAN_MOTION":14.88563158,"ECCENTRICITY":0.000884,"INCLINATION":97.7979,"RA_OF_ASC_NODE":186.0431,"ARG_OF_PERICENTER":83.6049,"MEAN_ANOMALY":276.6174,"EPHEMERIS_TYPE":0,"NORAD_CAT_ID":67370,"ELEMENT_SET_NO":999,"REV_AT_EPOCH":2621,"BSTAR":0.00025123,"MEAN_MOTION_DOT":0.00002285,"MEAN_MOTION_DDOT":0},{"OBJECT_NAME":"LEMUR-2-KATIE","OBJECT_ID":"2026-004AA","EPOCH":"2026-07-06T19:55:17.481216","CLASSIFICATION_TYPE":"U","MEAN_MOTION":14.90202649,"ECCENTRICITY":0.0004196,"INCLINATION":97.8046,"RA_OF_ASC_NODE":186.5994,"ARG_OF_PERICENTER":52.7515,"MEAN_ANOMALY":307.4085,"EPHEMERIS_TYPE":0,"NORAD_CAT_ID":67387,"ELEMENT_SET_NO":999,"REV_AT_EPOCH":2623,"BSTAR":0.00036075,"MEAN_MOTION_DOT":0.00003442,"MEAN_MOTION_DDOT":0},{"OBJECT_NAME":"LEMUR-2-HCS-BAZUS","OBJECT_ID":"2026-004AB","EPOCH":"2026-07-06T13:26:20.048064","CLASSIFICATION_TYPE":"U","MEAN_MOTION":14.90231624,"ECCENTRICITY":0.0003631,"INCLINATION":97.8031,"RA_OF_ASC_NODE":186.312,"ARG_OF_PERICENTER":53.0769,"MEAN_ANOMALY":307.0781,"EPHEMERIS_TYPE":0,"NORAD_CAT_ID":67388,"ELEMENT_SET_NO":999,"REV_AT_EPOCH":2619,"BSTAR":0.00026968,"MEAN_MOTION_DOT":0.0000256,"MEAN_MOTION_DDOT":0}]}
